$$SOE
2459580.500000000, A.D. 2022-Jan-01 00:00:00.0000, -3.675446531725211E+08, 3.421096512051250E+08, 8.403257185827911E+06,
2459587.500000000, A.D. 2022-Jan-08 00:00:00.0000, -3.737478000717455E+08, 3.350494938788651E+08, 1.037191523813193E+07,
2459594.500000000, A.D. 2022-Jan-15 00:00:00.0000, -3.798076239266285E+08, 3.278608074798893E+08, 1.233659526443663E+07,
2459601.500000000, A.D. 2022-Jan-22 00:00:00.0000, -3.857216619644629E+08, 3.205462328363263E+08, 1.429653880199395E+07,
2459608.500000000, A.D. 2022-Jan-29 00:00:00.0000, -3.914874946080531E+08, 3.131084600555136E+08, 1.625098763213105E+07,
2459615.500000000, A.D. 2022-Feb-05 00:00:00.0000, -3.971027484307504E+08, 3.055502274351078E+08, 1.819918410419023E+07,
2459622.500000000, A.D. 2022-Feb-12 00:00:00.0000, -4.025650969413824E+08, 2.978743192992392E+08, 2.014037117674218E+07,
2459629.500000000, A.D. 2022-Feb-19 00:00:00.0000, -4.078722605240397E+08, 2.900835651251635E+08, 2.207379249107333E+07,
2459636.500000000, A.D. 2022-Feb-26 00:00:00.0000, -4.130220068463315E+08, 2.821808392362565E+08, 2.399869253788203E+07,
2459643.500000000, A.D. 2022-Mar-05 00:00:00.0000, -4.180121515784826E+08, 2.741690604444475E+08, 2.591431685192961E+07,
2459650.500000000, A.D. 2022-Mar-12 00:00:00.0000, -4.228405592025020E+08, 2.660511915765034E+08, 2.781991220875336E+07,
2459657.500000000, A.D. 2022-Mar-19 00:00:00.0000, -4.275051438410310E+08, 2.578302389124316E+08, 2.971472681907295E+07,
2459664.500000000, A.D. 2022-Mar-26 00:00:00.0000, -4.320038700837399E+08, 2.495092515302391E+08, 3.159801051824461E+07,
2459671.500000000, A.D. 2022-Apr-02 00:00:00.0000, -4.363347537433895E+08, 2.410913205011954E+08, 3.346901493990168E+07,
2459678.500000000, A.D. 2022-Apr-09 00:00:00.0000, -4.404958622691494E+08, 2.325795779401426E+08, 3.532699364916514E+07,
2459685.500000000, A.D. 2022-Apr-16 00:00:00.0000, -4.444853144595365E+08, 2.239771965642784E+08, 3.717120225606000E+07,
2459692.500000000, A.D. 2022-Apr-23 00:00:00.0000, -4.483012807437794E+08, 2.152873908437484E+08, 3.900089871409611E+07,
2459699.500000000, A.D. 2022-Apr-30 00:00:00.0000, -4.519419859025868E+08, 2.065134174985029E+08, 4.081534379212323E+07,
2459706.500000000, A.D. 2022-May-07 00:00:00.0000, -4.554057111651311E+08, 1.976585733682013E+08, 4.261380127735613E+07,
2459713.500000000, A.D. 2022-May-14 00:00:00.0000, -4.586907942907081E+08, 1.887261936920012E+08, 4.439553803038391E+07,
2459720.500000000, A.D. 2022-May-21 00:00:00.0000, -4.617956296658986E+08, 1.797196515548847E+08, 4.615982414043853E+07,
2459727.500000000, A.D. 2022-May-28 00:00:00.0000, -4.647186688969309E+08, 1.706423575410762E+08, 4.790593314659858E+07,
2459734.500000000, A.D. 2022-Jun-04 00:00:00.0000, -4.674584216201240E+08, 1.614977592815094E+08, 4.963314227409048E+07,
2459741.500000000, A.D. 2022-Jun-11 00:00:00.0000, -4.700134563851691E+08, 1.522893408969665E+08, 5.134073267271257E+07,
2459748.500000000, A.D. 2022-Jun-18 00:00:00.0000, -4.723824015719830E+08, 1.430206223494474E+08, 5.302798965503071E+07,
2459755.500000000, A.D. 2022-Jun-25 00:00:00.0000, -4.745639463111989E+08, 1.336951586678959E+08, 5.469420292906228E+07,
2459762.500000000, A.D. 2022-Jul-02 00:00:00.0000, -4.765568412737338E+08, 1.243165389819013E+08, 5.633866680792646E+07,
2459769.500000000, A.D. 2022-Jul-09 00:00:00.0000, -4.783598989384891E+08, 1.148883855396715E+08, 5.796068037527393E+07,
2459776.500000000, A.D. 2022-Jul-16 00:00:00.0000, -4.799719933925561E+08, 1.054143537921480E+08, 5.955954770017660E+07,
2459783.500000000, A.D. 2022-Jul-23 00:00:00.0000, -4.813920618621299E+08, 9.589813361973932E+07, 6.113457830967383E+07,
2459790.500000000, A.D. 2022-Jul-30 00:00:00.0000, -4.826191078908437E+08, 8.634344834717840E+07, 6.268508763759843E+07,
2459797.500000000, A.D. 2022-Aug-06 00:00:00.0000, -4.836522025660361E+08, 7.675405219486287E+07, 6.421039717292506E+07,
2459804.500000000, A.D. 2022-Aug-13 00:00:00.0000, -4.844904846137671E+08, 6.713372892004108E+07, 6.570983460829412E+07,
2459811.500000000, A.D. 2022-Aug-20 00:00:00.0000, -4.851331609311767E+08, 5.748629114247331E+07, 6.718273409165323E+07,
2459818.500000000, A.D. 2022-Aug-27 00:00:00.0000, -4.855795074885093E+08, 4.781557962691360E+07, 6.862843651576376E+07,
2459825.500000000, A.D. 2022-Sep-03 00:00:00.0000, -4.858288703528302E+08, 3.812546241138261E+07, 7.004628981415984E+07,
2459832.500000000, A.D. 2022-Sep-10 00:00:00.0000, -4.858806667427679E+08, 2.841983380461616E+07, 7.143564925749716E+07,
2459839.500000000, A.D. 2022-Sep-17 00:00:00.0000, -4.857343860841456E+08, 1.870261325041945E+07, 7.279587774759047E+07,
2459846.500000000, A.D. 2022-Sep-24 00:00:00.0000, -4.853895910051413E+08, 8.977744007718164E+06, 7.412634609945700E+07,
2459853.500000000, A.D. 2022-Oct-01 00:00:00.0000, -4.848459180295111E+08, -7.508083760884590E+05, 7.542643328732902E+07,
2459860.500000000, A.D. 2022-Oct-08 00:00:00.0000, -4.841030775582370E+08, -1.047905727660682E+07, 7.669552665942980E+07,
2459867.500000000, A.D. 2022-Oct-15 00:00:00.0000, -4.831608540684865E+08, -2.020299469054142E+07, 7.793302230417541E+07,
2459874.500000000, A.D. 2022-Oct-22 00:00:00.0000, -4.820191087095552E+08, -2.991859110640009E+07, 7.913832562958480E+07,
2459881.500000000, A.D. 2022-Oct-29 00:00:00.0000, -4.806777817980289E+08, -3.962179814313946E+07, 8.031085171464485E+07,
2459888.500000000, A.D. 2022-Nov-05 00:00:00.0000, -4.791368931124016E+08, -4.930855121617500E+07, 8.145002546398586E+07,
2459895.500000000, A.D. 2022-Nov-12 00:00:00.0000, -4.773965419504896E+08, -5.897477096424505E+07, 8.255528184932898E+07,
2459902.500000000, A.D. 2022-Nov-19 00:00:00.0000, -4.754569076684049E+08, -6.861636439229982E+07, 8.362606622555073E+07,
2459909.500000000, A.D. 2022-Nov-26 00:00:00.0000, -4.733182504387299E+08, -7.822922612812477E+07, 8.466183466487315E+07,
2459916.500000000, A.D. 2022-Dec-03 00:00:00.0000, -4.709809120609389E+08, -8.780923980406499E+07, 8.566205429295029E+07,
2459923.500000000, A.D. 2022-Dec-10 00:00:00.0000, -4.684453167768182E+08, -9.735227954509631E+07, 8.662620362398064E+07,
2459930.500000000, A.D. 2022-Dec-17 00:00:00.0000, -4.657119720641361E+08, -1.068542115884567E+08, 8.755377289024845E+07,
2459937.500000000, A.D. 2022-Dec-24 00:00:00.0000, -4.627814692971672E+08, -1.163108961010322E+08, 8.844426435040680E+07,
2459944.500000000, A.D. 2022-Dec-31 00:00:00.0000, -4.596544839144349E+08, -1.257181890873046E+08, 8.929719255223000E+07,
2459951.500000000, A.D. 2023-Jan-07 00:00:00.0000, -4.563317749687476E+08, -1.350719434256917E+08, 9.011208461691509E+07,
2459958.500000000, A.D. 2023-Jan-14 00:00:00.0000, -4.528141860241638E+08, -1.443680085369309E+08, 9.088848076557660E+07,
2459965.500000000, A.D. 2023-Jan-21 00:00:00.0000, -4.491026480431463E+08, -1.536022318581262E+08, 9.162593488767293E+07,
2459972.500000000, A.D. 2023-Jan-28 00:00:00.0000, -4.451981805953798E+08, -1.627704623182593E+08, 9.232401479916039E+07,
2459979.500000000, A.D. 2023-Feb-04 00:00:00.0000, -4.411018915948736E+08, -1.718685527864641E+08, 9.298230245678744E+07,
2459986.500000000, A.D. 2023-Feb-11 00:00:00.0000, -4.368149773573728E+08, -1.808923616860674E+08, 9.360039427678767E+07,
2459993.500000000, A.D. 2023-Feb-18 00:00:00.0000, -4.323387230386994E+08, -1.898377545978830E+08, 9.417790149607000E+07,
2460000.500000000, A.D. 2023-Feb-25 00:00:00.0000, -4.276745031894891E+08, -1.987006060148058E+08, 9.471445053850099E+07,
2460007.500000000, A.D. 2023-Mar-04 00:00:00.0000, -4.228237823225039E+08, -2.074768012285635E+08, 9.520968337846898E+07,
2460014.500000000, A.D. 2023-Mar-11 00:00:00.0000, -4.177881154619443E+08, -2.161622383474061E+08, 9.566325789910093E+07,
2460021.500000000, A.D. 2023-Mar-18 00:00:00.0000, -4.125691486255084E+08, -2.247528304933777E+08, 9.607484823665778E+07,
2460028.500000000, A.D. 2023-Mar-25 00:00:00.0000, -4.071686190336432E+08, -2.332445082254583E+08, 9.644414508845879E+07,
2460035.500000000, A.D. 2023-Apr-01 00:00:00.0000, -4.015883546191657E+08, -2.416332217940269E+08, 9.677085597733687E+07,
2460042.500000000, A.D. 2023-Apr-08 00:00:00.0000, -3.958302734499955E+08, -2.499149420002337E+08, 9.705470562876636E+07,
2460049.500000000, A.D. 2023-Apr-15 00:00:00.0000, -3.898963853990583E+08, -2.580856607652827E+08, 9.729543658402514E+07,
2460056.500000000, A.D. 2023-Apr-22 00:00:00.0000, -3.837887942500721E+08, -2.661413944611777E+08, 9.749280963367671E+07,
2460063.500000000, A.D. 2023-Apr-29 00:00:00.0000, -3.775096975027915E+08, -2.740781877491042E+08, 9.764660400442347E+07,
2460070.500000000, A.D. 2023-May-06 00:00:00.0000, -3.710613856355222E+08, -2.818921161422092E+08, 9.775661760566342E+07,
2460077.500000000, A.D. 2023-May-13 00:00:00.0000, -3.644462417984009E+08, -2.895792881845140E+08, 9.782266735127395E+07,
2460084.500000000, A.D. 2023-May-20 00:00:00.0000, -3.576667417004296E+08, -2.971358477361793E+08, 9.784458949414840E+07,
2460091.500000000, A.D. 2023-May-27 00:00:00.0000, -3.507254534949438E+08, -3.045579763939431E+08, 9.782223995286672E+07,
2460098.500000000, A.D. 2023-Jun-03 00:00:00.0000, -3.436250376047629E+08, -3.118418960194290E+08, 9.775549462701148E+07,
2460105.500000000, A.D. 2023-Jun-10 00:00:00.0000, -3.363682464619625E+08, -3.189838713866959E+08, 9.764424969723362E+07,
2460112.500000000, A.D. 2023-Jun-17 00:00:00.0000, -3.289579240712606E+08, -3.259802130059837E+08, 9.748842189595419E+07,
2460119.500000000, A.D. 2023-Jun-24 00:00:00.0000, -3.213970050742584E+08, -3.328272800648108E+08, 9.728794872252855E+07,
2460126.500000000, A.D. 2023-Jul-01 00:00:00.0000, -3.136885130581936E+08, -3.395214826555847E+08, 9.704278864593913E+07,
2460133.500000000, A.D. 2023-Jul-08 00:00:00.0000, -3.058355597800080E+08, -3.460592824655750E+08, 9.675292151457632E+07,
2460140.500000000, A.D. 2023-Jul-15 00:00:00.0000, -2.978413465799890E+08, -3.524371947578894E+08, 9.641834905829203E+07,
2460147.500000000, A.D. 2023-Jul-22 00:00:00.0000, -2.897091644629028E+08, -3.586517926773772E+08, 9.603909507528487E+07,
$$EOE